{
  "norad_id": 42961,
  "name": "IRIDIUM 132",
  "history": [
    {
      "epoch": "2026-03-28T22:02:18.699072",
      "apogee_km": 779.1653565479028,
      "perigee_km": 776.1699367228202,
      "latitude_deg": 72.3618823687504,
      "longitude_deg": 4.254110079957172,
      "semi_major_axis_km": 7155.804646635361,
      "eccentricity": 0.0002093,
      "inclination_deg": 86.3942,
      "raan_deg": 58.7962,
      "arg_perigee_deg": 90.1242,
      "mean_anomaly_deg": 270.0193,
      "mean_motion_rev_day": 14.34217602
    },
    {
      "epoch": "2026-03-29T04:44:10.702176",
      "apogee_km": 779.1661419938064,
      "perigee_km": 776.1692909785424,
      "latitude_deg": -60.94627277713614,
      "longitude_deg": 31.045224640285596,
      "semi_major_axis_km": 7155.804716486175,
      "eccentricity": 0.0002094,
      "inclination_deg": 86.3944,
      "raan_deg": 58.6795,
      "arg_perigee_deg": 90.0819,
      "mean_anomaly_deg": 270.0616,
      "mean_motion_rev_day": 14.34217581
    }
  ]
}